*******************************************************************************
 Revised: Jan 08, 2014           Sycorax / (Uranus)                         717

           http://ssd.jpl.nasa.gov/sat_props.html  (physical properties)
           http://ssd.jpl.nasa.gov/sat_elem.html   (mean elements)

 SATELLITE PHYSICAL PROPERTIES:
  Radius (km)           = ~60               Density (g cm^-3)   =
  Mass (10^20 kg )      =                   Geometric Albedo    =   0.07 
                                            V(1,0)              =  

 SATELLITE ORBITAL DATA:
  Semi-major axis, a (km) = 122 (10^5)      Orbital period      = 1290 days
  Eccentricity, e         =   0.5           Rotational period   = 
  Inclination, i  (deg)   =  97.8 (retro)
*******************************************************************************
 
 
*******************************************************************************
Ephemeris / WWW_USER Thu Jun 18 11:39:30 2020 Pasadena, USA      / Horizons
*******************************************************************************
Target body name: Sycorax (717)                   {source: ura112}
Center body name: Solar System Barycenter (0)     {source: DE431mx}
Center-site name: BODY CENTER
*******************************************************************************
Start time      : A.D. 2000-Jun-05 00:00:00.0000 TDB
Stop  time      : A.D. 2040-May-26 00:00:00.0000 TDB
Step-size       : 14400 minutes
*******************************************************************************
Center geodetic : 0.00000000,0.00000000,0.0000000 {E-lon(deg),Lat(deg),Alt(km)}
Center cylindric: 0.00000000,0.00000000,0.0000000 {E-lon(deg),Dxy(km),Dz(km)}
Center radii    : (undefined)                                                  
Output units    : AU-D
Output type     : GEOMETRIC cartesian states
Output format   : 3 (position, velocity, LT, range, range-rate)
Reference frame : Ecliptic of J2000.0
*******************************************************************************
JDTDB
   X     Y     Z
   VX    VY    VZ
   LT    RG    RR
*******************************************************************************
$$SOE
2463660.500000000 = A.D. 2033-Mar-04 00:00:00.0000 TDB 
 X =-5.859412304481953E-02 Y = 1.905129782600570E+01 Z = 9.467631954918372E-02
 VX=-3.829647953947934E-03 VY= 2.688621566767750E-04 VZ= 2.599882658305743E-05
 LT= 1.100329989105034E-01 RG= 1.905162317840421E+01 RR= 2.807650197333443E-04
2463670.500000000 = A.D. 2033-Mar-14 00:00:00.0000 TDB 
 X =-9.680248752896489E-02 Y = 1.905384789644537E+01 Z = 9.488673695857548E-02
 VX=-3.812391301375105E-03 VY= 2.411586829696560E-04 VZ= 1.625852401773556E-05
 LT= 1.100486325305169E-01 RG= 1.905433005579881E+01 RR= 2.606017912657306E-04
2463680.500000000 = A.D. 2033-Mar-24 00:00:00.0000 TDB 
 X =-1.348488493428723E-01 Y = 1.905612139257079E+01 Z = 9.500478817445318E-02
 VX=-3.797205664823254E-03 VY= 2.135714672112294E-04 VZ= 7.507971124986512E-06
 LT= 1.100631017657101E-01 RG= 1.905683532621142E+01 RR= 2.404704576887207E-04
2463690.500000000 = A.D. 2033-Apr-03 00:00:00.0000 TDB 
 X =-1.727527123997352E-01 Y = 1.905812012774948E+01 Z = 9.503985785467972E-02
 VX=-3.783854412919278E-03 VY= 1.862236439633726E-04 VZ=-3.538098945635696E-07
 LT= 1.100764126542055E-01 RG= 1.905914003511052E+01 RR= 2.205089031642797E-04
2463700.500000000 = A.D. 2033-Apr-13 00:00:00.0000 TDB 
 X =-2.105313506359990E-01 Y = 1.905984695445689E+01 Z = 9.500036907581146E-02
 VX=-3.772127909253596E-03 VY= 1.592016156523321E-04 VZ=-7.418143429867735E-06
 LT= 1.100885780222553E-01 RG= 1.906124640329286E+01 RR= 2.008160854432726E-04
2463710.500000000 = A.D. 2033-Apr-23 00:00:00.0000 TDB 
 X =-2.482000683978575E-01 Y = 1.906130544381098E+01 Z = 9.489387922858707E-02
 VX=-3.761841503090028E-03 VY= 1.325640354845022E-04 VZ=-1.376690621753583E-05
 LT= 1.100996155167492E-01 RG= 1.906315748622263E+01 RR= 1.814613605834836E-04
2463720.500000000 = A.D. 2033-May-03 00:00:00.0000 TDB 
 X =-2.857724386515643E-01 Y = 1.906249964476829E+01 Z = 9.472717206232220E-02
 VX=-3.752833153998152E-03 VY= 1.063488213866080E-04 VZ=-1.947306297752560E-05
 LT= 1.101095461162175E-01 RG= 1.906487691621981E+01 RR= 1.624917925041203E-04
2463730.500000000 = A.D. 2033-May-13 00:00:00.0000 TDB 
 X =-3.232605166734752E-01 Y = 1.906343390418811E+01 Z = 9.450634322174382E-02
 VX=-3.744960953894110E-03 VY= 8.057841686596537E-05 VZ=-2.460139777465945E-05
 LT= 1.101183930091476E-01 RG= 1.906640870824650E+01 RR= 1.439376649666300E-04
2463740.500000000 = A.D. 2033-May-23 00:00:00.0000 TDB 
 X =-3.606750292660441E-01 Y = 1.906411273349494E+01 Z = 9.423687813385377E-02
 VX=-3.738100732371343E-03 VY= 5.526385390221221E-05 VZ=-2.920930410024985E-05
 LT= 1.101261807547546E-01 RG= 1.906775711459899E+01 RR= 1.258167556822378E-04
2463750.500000000 = A.D. 2033-Jun-02 00:00:00.0000 TDB 
 X =-3.980255409397914E-01 Y = 1.906454071024312E+01 Z = 9.392372194776023E-02
 VX=-3.732143846959674E-03 VY= 3.040778303832903E-05 VZ=-3.334757297345002E-05
 LT= 1.101329346565111E-01 RG= 1.906892651643773E+01 RR= 1.081375430989561E-04
2463760.500000000 = A.D. 2033-Jun-12 00:00:00.0000 TDB 
 X =-4.353205989881556E-01 Y = 1.906472240653193E+01 Z = 9.357134177546521E-02
 VX=-3.726995187215483E-03 VY= 6.006783429497675E-06 VZ=-3.706113967974837E-05
 LT= 1.101386803000736E-01 RG= 1.906992134378183E+01 RR= 9.090166362756534E-05
2463770.500000000 = A.D. 2033-Jun-22 00:00:00.0000 TDB 
 X =-4.725678598000118E-01 Y = 1.906466233733453E+01 Z = 9.318378176103062E-02
 VX=-3.722571403197632E-03 VY=-1.794689222660727E-05 VZ=-4.038977260053168E-05
 LT= 1.101434432139936E-01 RG= 1.907074601676297E+01 RR= 7.410577895900934E-05
2463780.500000000 = A.D. 2033-Jul-02 00:00:00.0000 TDB 
 X =-5.097741985544906E-01 Y = 1.906436492404322E+01 Z = 9.276471159813968E-02
 VX=-3.718799364123786E-03 VY=-4.146402803144616E-05 VZ=-4.336869041365751E-05
 LT= 1.101472486247675E-01 RG= 1.907140490321359E+01 RR= 5.774296782796168E-05
2463790.500000000 = A.D. 2033-Jul-12 00:00:00.0000 TDB 
 X =-5.469458044796836E-01 Y = 1.906383446930818E+01 Z = 9.231746919794011E-02
 VX=-3.715614800872642E-03 VY=-6.455744733461611E-05 VZ=-4.602911773590507E-05
 LT= 1.101501212824931E-01 RG= 1.907190228848029E+01 RR= 4.180380818511638E-05
2463800.500000000 = A.D. 2033-Jul-22 00:00:00.0000 TDB 
 X =-5.840882635337464E-01 Y = 1.906307514042642E+01 Z = 9.184509815405778E-02
 VX=-3.712961147928736E-03 VY=-8.724129183861180E-05 VZ=-4.839876964707985E-05
 LT= 1.101520853403892E-01 RG= 1.907224235456325E+01 RR= 2.627716913034890E-05
2463810.500000000 = A.D. 2033-Aug-01 00:00:00.0000 TDB 
 X =-6.212066302375847E-01 Y = 1.906209095907391E+01 Z = 9.135038063538922E-02
 VX=-3.710788528832243E-03 VY=-1.095304673611074E-04 VZ=-5.050228228881306E-05
 LT= 1.101531642746918E-01 RG= 1.907242916624677E+01 RR= 1.115082412046367E-05
2463820.500000000 = A.D. 2033-Aug-11 00:00:00.0000 TDB 
 X =-6.583054901662917E-01 Y = 1.906088579574218E+01 Z = 9.083586627906361E-02
 VX=-3.709052895216790E-03 VY=-1.314402457830270E-04 VZ=-5.236158463428702E-05
 LT= 1.101533808348592E-01 RG= 1.907246666247740E+01 RR=-3.588101146392572E-06
2463830.500000000 = A.D. 2033-Aug-21 00:00:00.0000 TDB 
 X =-6.953890143631771E-01 Y = 1.905946336767289E+01 Z = 9.030389757819292E-02
 VX=-3.707715275590686E-03 VY=-1.529859647087140E-04 VZ=-5.399622655663458E-05
 LT= 1.101527570166046E-01 RG= 1.907235865169486E+01 RR=-1.795278680876116E-05
2463840.500000000 = A.D. 2033-Aug-31 00:00:00.0000 TDB 
 X =-7.324610068406934E-01 Y = 1.905782723931499E+01 Z = 8.975663223055240E-02
 VX=-3.706741134182288E-03 VY=-1.741828135367890E-04 VZ=-5.542366213769180E-05
 LT= 1.101513140517200E-01 RG= 1.907210881006995E+01 RR=-3.195646965575880E-05
2463850.500000000 = A.D. 2033-Sep-10 00:00:00.0000 TDB 
 X =-7.695249460869270E-01 Y = 1.905598082463033E+01 Z = 8.919606282380621E-02
 VX=-3.706099817893322E-03 VY=-1.950456800063263E-04 VZ=-5.665949700211633E-05
 LT= 1.101490724104413E-01 RG= 1.907172068191416E+01 RR=-4.561225985495428E-05
2463860.500000000 = A.D. 2033-Sep-20 00:00:00.0000 TDB 
 X =-8.065840214525352E-01 Y = 1.905392739067616E+01 Z = 8.862403422231428E-02
 VX=-3.705764077528255E-03 VY=-2.155890420246328E-04 VZ=-5.771770414564629E-05
 LT= 1.101460518127815E-01 RG= 1.907119768164191E+01 RR=-5.893300752815516E-05
2463870.500000000 = A.D. 2033-Sep-30 00:00:00.0000 TDB 
 X =-8.436411650816756E-01 Y = 1.905167006208917E+01 Z = 8.804225893503331E-02
 VX=-3.705709657764099E-03 VY=-2.358268964061600E-04 VZ=-5.861081056799849E-05
 LT= 1.101422712464179E-01 RG= 1.907054309686757E+01 RR=-7.193120983281588E-05
2463880.500000000 = A.D. 2033-Oct-10 00:00:00.0000 TDB 
 X =-8.806990800231820E-01 Y = 1.904921182614779E+01 Z = 8.745233073713621E-02
 VX=-3.705914939804079E-03 VY=-2.557727121939009E-04 VZ=-5.935006136228826E-05
 LT= 1.101377489890747E-01 RG= 1.906976009228103E+01 RR=-8.461894586964575E-05
2463890.500000000 = A.D. 2033-Oct-20 00:00:00.0000 TDB 
 X =-9.177602650257393E-01 Y = 1.904655553819272E+01 Z = 8.685573676394756E-02
 VX=-3.706360634616033E-03 VY=-2.754394047873043E-04 VZ=-5.994556162367231E-05
 LT= 1.101325026339649E-01 RG= 1.906885171405265E+01 RR=-9.700783487341803E-05
2463900.500000000 = A.D. 2033-Oct-30 00:00:00.0000 TDB 
 X =-9.548270364646617E-01 Y = 1.904370392723366E+01 Z = 8.625386827304288E-02
 VX=-3.707029515184561E-03 VY=-2.948393240035466E-04 VZ=-6.040640115872665E-05
 LT= 1.101265491171601E-01 RG= 1.906782089457238E+01 RR=-1.091090106011615E-04
2463910.500000000 = A.D. 2033-Nov-09 00:00:00.0000 TDB 
 X =-9.919015477820312E-01 Y = 1.904065960161726E+01 Z = 8.564803024336430E-02
 VX=-3.707906185677652E-03 VY=-3.139842531476842E-04 VZ=-6.074076291056802E-05
 LT= 1.101199047460526E-01 RG= 1.906667045737762E+01 RR=-1.209331084681027E-04
